ONEWEB-0422             
1 51626U 22012E   25282.10649554  .00000008  00000+0 -13749-4 0  9996
2 51626  87.9092  55.7757 0001324 121.1337 238.9924 13.17649124180746
ONEWEB-0423             
1 51627U 22012F   25282.32753371  .00000013  00000+0 -60567-6 0  9992
2 51627  87.9095  55.7411 0001563  97.1835 262.9474 13.17646112180669
ONEWEB-0425             
1 51628U 22012G   25282.19686950 -.00000143  00000+0 -44499-3 0  9994
2 51628  87.8750  86.3002 0001617  77.6438 282.4870 13.10376556176459
ONEWEB-0428             
1 51629U 22012H   25282.17694306 -.00000578  00000+0 -16913-2 0  9998
2 51629  87.8744  86.3251 0001507  97.5091 262.6207 13.10371719176419
ONEWEB-0431             
1 51630U 22012J   25282.22330911  .00000592  00000+0  16600-2 0  9992
2 51630  87.8756  86.2901 0001987 108.8127 251.3216 13.10371223176474
ONEWEB-0434             
1 51631U 22012K   25281.51297653  .00000155  00000+0  40817-3 0  9992
2 51631  87.8752  86.4725 0001660  67.9488 292.1816 13.10377259176362
ONEWEB-0435             
1 51632U 22012L   25282.20850067  .00000485  00000+0  13529-2 0  9999
2 51632  87.8750  86.3248 0001341 102.2181 257.9097 13.10376049176444
ONEWEB-0436             
1 51633U 22012M   25282.31912525  .00000073  00000+0  15606-3 0  9992
2 51633  87.9094  55.7222 0001627 105.1730 254.9582 13.17649139180641
ONEWEB-0438             
1 51634U 22012N   25282.19188164 -.00000208  00000+0 -63185-3 0  9990
2 51634  87.8747  86.3288 0001586  84.2096 275.9212 13.10377957176472
ONEWEB-0439             
1 51635U 22012P   25282.19520705 -.00000173  00000+0 -53216-3 0  9997
2 51635  87.8750  86.3169 0001549  90.6718 269.4587 13.10377030176459
ONEWEB-0442             
1 51636U 22012Q   25282.08370304  .00000001  00000+0 -29965-4 0  9998
2 51636  87.9088  55.8221 0002013  80.0955 280.0404 13.17651541180606
ONEWEB-0443             
1 51637U 22012R   25282.10310325  .00000054  00000+0  10521-3 0  9993
2 51637  87.9084  55.8250 0001506  87.3137 272.8167 13.17646280180657
ONEWEB-0444             
1 51638U 22012S   25282.18521119 -.00001279  00000+0 -36995-2 0  9991
2 51638  87.8741  86.3180 0001624  91.0460 269.0853 13.10374811176465
ONEWEB-0445             
1 51639U 22012T   25282.20682212  .00000469  00000+0  13080-2 0  9995
2 51639  87.8765  86.2712 0001804  89.1019 271.0315 13.10377591176475
ONEWEB-0446             
1 51640U 22012U   25282.18358252 -.00000753  00000+0 -21922-2 0  9990
2 51640  87.8748  86.3344 0001919  92.9663 267.1684 13.10373301176452
ONEWEB-0448             
1 51641U 22012V   25282.18856260 -.00000623  00000+0 -18204-2 0  9998
2 51641  87.8751  86.3336 0001541  92.1250 268.0054 13.10374268176424
ONEWEB-0449             
1 51642U 22012W   25282.19354484 -.00000251  00000+0 -75468-3 0  9994
2 51642  87.8747  86.3025 0001586  73.3247 286.8055 13.10376768176438
