[{"OBJECT_NAME":"ONEWEB-0422","OBJECT_ID":"2022-012E","EPOCH":"2025-10-09T02:33:21.214656","MEAN_MOTION":13.17649124,"ECCENTRICITY":0.00013248,"INCLINATION":87.9092,"RA_OF_ASC_NODE":55.7757,"ARG_OF_PERICENTER":121.1337,"MEAN_ANOMALY":238.9924,"EPHEMERIS_TYPE":0,"CLASSIFICATION_TYPE":"U","NORAD_CAT_ID":51626,"ELEMENT_SET_NO":999,"REV_AT_EPOCH":18074,"BSTAR":-1.3748619e-5,"MEAN_MOTION_DOT":8.0e-8,"MEAN_MOTION_DDOT":0},{"OBJECT_NAME":"ONEWEB-0423","OBJECT_ID":"2022-012F","EPOCH":"2025-10-09T07:51:38.912544","MEAN_MOTION":13.17646112,"ECCENTRICITY":0.00015637,"INCLINATION":87.9095,"RA_OF_ASC_NODE":55.7411,"ARG_OF_PERICENTER":97.1835,"MEAN_ANOMALY":262.9474,"EPHEMERIS_TYPE":0,"CLASSIFICATION_TYPE":"U","NORAD_CAT_ID":51627,"ELEMENT_SET_NO":999,"REV_AT_EPOCH":18066,"BSTAR":-6.05674e-7,"MEAN_MOTION_DOT":1.3e-7,"MEAN_MOTION_DDOT":0},{"OBJECT_NAME":"ONEWEB-0425","OBJECT_ID":"2022-012G","EPOCH":"2025-10-09T04:43:29.524800","MEAN_MOTION":13.10376556,"ECCENTRICITY":0.00016174,"INCLINATION":87.875,"RA_OF_ASC_NODE":86.3002,"ARG_OF_PERICENTER":77.6438,"MEAN_ANOMALY":282.487,"EPHEMERIS_TYPE":0,"CLASSIFICATION_TYPE":"U","NORAD_CAT_ID":51628,"ELEMENT_SET_NO":999,"REV_AT_EPOCH":17645,"BSTAR":-0.00044499255,"MEAN_MOTION_DOT":-1.43e-6,"MEAN_MOTION_DDOT":0},{"OBJECT_NAME":"ONEWEB-0428","OBJECT_ID":"2022-012H","EPOCH":"2025-10-09T04:14:47.880384","MEAN_MOTION":13.10371719,"ECCENTRICITY":0.00015074,"INCLINATION":87.8744,"RA_OF_ASC_NODE":86.3251,"ARG_OF_PERICENTER":97.5091,"MEAN_ANOMALY":262.6207,"EPHEMERIS_TYPE":0,"CLASSIFICATION_TYPE":"U","NORAD_CAT_ID":51629,"ELEMENT_SET_NO":999,"REV_AT_EPOCH":17641,"BSTAR":-0.0016912731,"MEAN_MOTION_DOT":-5.78e-6,"MEAN_MOTION_DDOT":0},{"OBJECT_NAME":"ONEWEB-0431","OBJECT_ID":"2022-012J","EPOCH":"2025-10-09T05:21:33.907104","MEAN_MOTION":13.10371223,"ECCENTRICITY":0.00019879,"INCLINATION":87.8756,"RA_OF_ASC_NODE":86.2901,"ARG_OF_PERICENTER":108.8127,"MEAN_ANOMALY":251.3216,"EPHEMERIS_TYPE":0,"CLASSIFICATION_TYPE":"U","NORAD_CAT_ID":51630,"ELEMENT_SET_NO":999,"REV_AT_EPOCH":17647,"BSTAR":0.0016599659,"MEAN_MOTION_DOT":5.92e-6,"MEAN_MOTION_DDOT":0},{"OBJECT_NAME":"ONEWEB-0434","OBJECT_ID":"2022-012K","EPOCH":"2025-10-08T12:18:41.172192","MEAN_MOTION":13.10377259,"ECCENTRICITY":0.00016607,"INCLINATION":87.8752,"RA_OF_ASC_NODE":86.4725,"ARG_OF_PERICENTER":67.9488,"MEAN_ANOMALY":292.1816,"EPHEMERIS_TYPE":0,"CLASSIFICATION_TYPE":"U","NORAD_CAT_ID":51631,"ELEMENT_SET_NO":999,"REV_AT_EPOCH":17636,"BSTAR":0.0004081662,"MEAN_MOTION_DOT":1.55e-6,"MEAN_MOTION_DDOT":0},{"OBJECT_NAME":"ONEWEB-0435","OBJECT_ID":"2022-012L","EPOCH":"2025-10-09T05:00:14.457888","MEAN_MOTION":13.10376049,"ECCENTRICITY":0.00013417,"INCLINATION":87.875,"RA_OF_ASC_NODE":86.3248,"ARG_OF_PERICENTER":102.2181,"MEAN_ANOMALY":257.9097,"EPHEMERIS_TYPE":0,"CLASSIFICATION_TYPE":"U","NORAD_CAT_ID":51632,"ELEMENT_SET_NO":999,"REV_AT_EPOCH":17644,"BSTAR":0.0013528892,"MEAN_MOTION_DOT":4.85e-6,"MEAN_MOTION_DDOT":0},{"OBJECT_NAME":"ONEWEB-0436","OBJECT_ID":"2022-012M","EPOCH":"2025-10-09T07:39:32.421600","MEAN_MOTION":13.17649139,"ECCENTRICITY":0.00016274,"INCLINATION":87.9094,"RA_OF_ASC_NODE":55.7222,"ARG_OF_PERICENTER":105.173,"MEAN_ANOMALY":254.9582,"EPHEMERIS_TYPE":0,"CLASSIFICATION_TYPE":"U","NORAD_CAT_ID":51633,"ELEMENT_SET_NO":999,"REV_AT_EPOCH":18064,"BSTAR":0.00015605705,"MEAN_MOTION_DOT":7.3e-7,"MEAN_MOTION_DDOT":0},{"OBJECT_NAME":"ONEWEB-0438","OBJECT_ID":"2022-012N","EPOCH":"2025-10-09T04:36:18.573696","MEAN_MOTION":13.10377957,"ECCENTRICITY":0.00015867,"INCLINATION":87.8747,"RA_OF_ASC_NODE":86.3288,"ARG_OF_PERICENTER":84.2096,"MEAN_ANOMALY":275.9212,"EPHEMERIS_TYPE":0,"CLASSIFICATION_TYPE":"U","NORAD_CAT_ID":51634,"ELEMENT_SET_NO":999,"REV_AT_EPOCH":17647,"BSTAR":-0.00063184816,"MEAN_MOTION_DOT":-2.08e-6,"MEAN_MOTION_DDOT":0},{"OBJECT_NAME":"ONEWEB-0439","OBJECT_ID":"2022-012P","EPOCH":"2025-10-09T04:41:05.889120","MEAN_MOTION":13.1037703,"ECCENTRICITY":0.00015499,"INCLINATION":87.875,"RA_OF_ASC_NODE":86.3169,"ARG_OF_PERICENTER":90.6718,"MEAN_ANOMALY":269.4587,"EPHEMERIS_TYPE":0,"CLASSIFICATION_TYPE":"U","NORAD_CAT_ID":51635,"ELEMENT_SET_NO":999,"REV_AT_EPOCH":17645,"BSTAR":-0.0005321557,"MEAN_MOTION_DOT":-1.73e-6,"MEAN_MOTION_DDOT":0},{"OBJECT_NAME":"ONEWEB-0442","OBJECT_ID":"2022-012Q","EPOCH":"2025-10-09T02:00:31.942656","MEAN_MOTION":13.17651541,"ECCENTRICITY":0.00020132,"INCLINATION":87.9088,"RA_OF_ASC_NODE":55.8221,"ARG_OF_PERICENTER":80.0955,"MEAN_ANOMALY":280.0404,"EPHEMERIS_TYPE":0,"CLASSIFICATION_TYPE":"U","NORAD_CAT_ID":51636,"ELEMENT_SET_NO":999,"REV_AT_EPOCH":18060,"BSTAR":-2.9964619e-5,"MEAN_MOTION_DOT":1.0e-8,"MEAN_MOTION_DDOT":0},{"OBJECT_NAME":"ONEWEB-0443","OBJECT_ID":"2022-012R","EPOCH":"2025-10-09T02:28:28.120800","MEAN_MOTION":13.1764628,"ECCENTRICITY":0.00015069,"INCLINATION":87.9084,"RA_OF_ASC_NODE":55.825,"ARG_OF_PERICENTER":87.3137,"MEAN_ANOMALY":272.8167,"EPHEMERIS_TYPE":0,"CLASSIFICATION_TYPE":"U","NORAD_CAT_ID":51637,"ELEMENT_SET_NO":999,"REV_AT_EPOCH":18065,"BSTAR":0.00010521154,"MEAN_MOTION_DOT":5.4e-7,"MEAN_MOTION_DDOT":0},{"OBJECT_NAME":"ONEWEB-0444","OBJECT_ID":"2022-012S","EPOCH":"2025-10-09T04:26:42.246816","MEAN_MOTION":13.10374811,"ECCENTRICITY":0.00016245,"INCLINATION":87.8741,"RA_OF_ASC_NODE":86.318,"ARG_OF_PERICENTER":91.046,"MEAN_ANOMALY":269.0853,"EPHEMERIS_TYPE":0,"CLASSIFICATION_TYPE":"U","NORAD_CAT_ID":51638,"ELEMENT_SET_NO":999,"REV_AT_EPOCH":17646,"BSTAR":-0.0036994648,"MEAN_MOTION_DOT":-1.279e-5,"MEAN_MOTION_DDOT":0},{"OBJECT_NAME":"ONEWEB-0445","OBJECT_ID":"2022-012T","EPOCH":"2025-10-09T04:57:49.431168","MEAN_MOTION":13.10377591,"ECCENTRICITY":0.00018042,"INCLINATION":87.8765,"RA_OF_ASC_NODE":86.2712,"ARG_OF_PERICENTER":89.1019,"MEAN_ANOMALY":271.0315,"EPHEMERIS_TYPE":0,"CLASSIFICATION_TYPE":"U","NORAD_CAT_ID":51639,"ELEMENT_SET_NO":999,"REV_AT_EPOCH":17647,"BSTAR":0.0013079876,"MEAN_MOTION_DOT":4.69e-6,"MEAN_MOTION_DDOT":0},{"OBJECT_NAME":"ONEWEB-0446","OBJECT_ID":"2022-012U","EPOCH":"2025-10-09T04:24:21.529728","MEAN_MOTION":13.10373301,"ECCENTRICITY":0.00019199,"INCLINATION":87.8748,"RA_OF_ASC_NODE":86.3344,"ARG_OF_PERICENTER":92.9663,"MEAN_ANOMALY":267.1684,"EPHEMERIS_TYPE":0,"CLASSIFICATION_TYPE":"U","NORAD_CAT_ID":51640,"ELEMENT_SET_NO":999,"REV_AT_EPOCH":17645,"BSTAR":-0.0021922138,"MEAN_MOTION_DOT":-7.53e-6,"MEAN_MOTION_DDOT":0},{"OBJECT_NAME":"ONEWEB-0448","OBJECT_ID":"2022-012V","EPOCH":"2025-10-09T04:31:31.808640","MEAN_MOTION":13.10374268,"ECCENTRICITY":0.00015413,"INCLINATION":87.8751,"RA_OF_ASC_NODE":86.3336,"ARG_OF_PERICENTER":92.125,"MEAN_ANOMALY":268.0054,"EPHEMERIS_TYPE":0,"CLASSIFICATION_TYPE":"U","NORAD_CAT_ID":51641,"ELEMENT_SET_NO":999,"REV_AT_EPOCH":17642,"BSTAR":-0.0018203957,"MEAN_MOTION_DOT":-6.23e-6,"MEAN_MOTION_DDOT":0},{"OBJECT_NAME":"ONEWEB-0449","OBJECT_ID":"2022-012W","EPOCH":"2025-10-09T04:38:42.274176","MEAN_MOTION":13.10376768,"ECCENTRICITY":0.00015868,"INCLINATION":87.8747,"RA_OF_ASC_NODE":86.3025,"ARG_OF_PERICENTER":73.3247,"MEAN_ANOMALY":286.8055,"EPHEMERIS_TYPE":0,"CLASSIFICATION_TYPE":"U","NORAD_CAT_ID":51642,"ELEMENT_SET_NO":999,"REV_AT_EPOCH":17643,"BSTAR":-0.00075467781,"MEAN_MOTION_DOT":-2.51e-6,"MEAN_MOTION_DDOT":0}]
